STARLINK-37975          
1 69707U 26147D   26183.58335648 -.02294827  14817-2 -56892-2 0  9992
2 69707  97.2838 219.2027 0000967  94.1452 250.2434 15.96078944  1721
STARLINK-37972          
1 69708U 26147E   26183.58335648 -.02271713  14561-2 -55756-2 0  9996
2 69708  97.2837 219.2033 0001001  90.7980 254.8590 15.96263605  1729
STARLINK-37963          
1 69709U 26147F   26183.58335648 -.02255532  14390-2 -54827-2 0  9996
2 69709  97.2837 219.2036 0001017  86.7242 260.1693 15.96441373  1720
STARLINK-37969          
1 69710U 26147G   26183.58335648 -.02243241  14270-2 -53986-2 0  9994
2 69710  97.2836 219.2041 0000927  87.5584 260.5917 15.96625058  1877
STARLINK-37956          
1 69711U 26147H   26183.58335648 -.02213102  13926-2 -52826-2 0  9997
2 69711  97.2836 219.2048 0000913  85.5580 263.5994 15.96773933  1722
STARLINK-38043          
1 69712U 26147J   26183.58335648 -.02193014  13711-2 -51856-2 0  9991
2 69712  97.2834 219.2052 0001030  94.6947 255.6783 15.96945571  1722
STARLINK-38020          
1 69713U 26147K   26183.58335648 -.02177608  13554-2 -51001-2 0  9990
2 69713  97.2834 219.2058 0001023  94.1775 257.4438 15.97120118  1725
STARLINK-38059          
1 69714U 26147L   26183.58335648 -.02162519  13399-2 -50207-2 0  9990
2 69714  97.2834 219.2061 0001028  95.4722 257.2599 15.97279054  1721
STARLINK-38061          
1 69715U 26147M   26183.58335648 -.02152843  13309-2 -49530-2 0  9998
2 69715  97.2834 219.2065 0001060  91.3145 262.5697 15.97444234  1818
STARLINK-38060          
1 69716U 26147N   26183.58335648 -.02132726  13095-2 -48658-2 0  9999
2 69716  97.2833 219.2071 0001053  93.0625 261.9198 15.97595711  1815
STARLINK-38040          
1 69717U 26147P   26183.58335648 -.02109644  12846-2 -47751-2 0  9999
2 69717  97.2833 219.2075 0001034  89.5488 266.4710 15.97738268  1812
STARLINK-37989          
1 69718U 26147Q   26183.58335648 -.02094659  12696-2 -46985-2 0  9990
2 69718  97.2833 219.2078 0001126  88.0604 269.1527 15.97901162  1813
STARLINK-38039          
1 69719U 26147R   26183.58335648 -.02072777  12464-2 -46123-2 0  9995
2 69719  97.2832 219.2084 0001131  84.8741 273.4271 15.98044780  1811
STARLINK-38003          
1 69720U 26147S   26183.58335648 -.02066427  12416-2 -45547-2 0  9998
2 69720  97.2830 219.2089 0001057  91.0663 268.5133 15.98216494  1811
STARLINK-38014          
1 69721U 26147T   26183.58335648 -.02047894  12223-2 -44804-2 0  9997
2 69721  97.2831 219.2094 0001102  87.5664 272.9903 15.98349099  1813
STARLINK-37915          
1 69722U 26147U   26183.58335648 -.02044576  12209-2 -44318-2 0  9996
2 69722  97.2832 219.2098 0001067  94.3492 267.4448 15.98516624  1817
STARLINK-38007          
1 69723U 26147V   26183.58335648 -.02023620  11990-2 -43545-2 0  9991
2 69723  97.2831 219.2102 0001000  92.0491 270.7755 15.98646135  1813
STARLINK-38008          
1 69724U 26147W   26183.58335648 -.02005065  11799-2 -42835-2 0  9993
2 69724  97.2833 219.2108 0001043  89.8667 273.8993 15.98774179  1816
STARLINK-38021          
1 69725U 26147X   26183.58335648 -.02002089  11787-2 -42399-2 0  9999
2 69725  97.2831 219.2114 0001010  91.2278 274.0018 15.98931098  1817
STARLINK-38015          
1 69726U 26147Y   26183.58335648 -.01992079  11694-2 -41854-2 0  9998
2 69726  97.2831 219.2119 0001043  87.0518 279.2349 15.99072045  1812
STARLINK-38010          
1 69727U 26147Z   26183.58335648 -.01980564  11585-2 -41292-2 0  9990
2 69727  97.2831 219.2124 0001013  87.7052 279.6483 15.99209141  1818
SXM-11                  
1 69728U 26148A   26182.81095254 -.00000235  00000+0  00000+0 0  9995
2 69728  26.8832 144.5813 6480880 177.3988 189.3958  3.36250226   110
HAIYANG-2E              
1 69737U 26149A   26183.39976931 -.00669754  00000+0 -59574+0 0  9998
2 69737  99.3442 190.4869 0012316 261.6958  98.2802 13.87666544    67
