OBJECT_NAME,OBJECT_ID,EPOCH,MEAN_MOTION,ECCENTRICITY,INCLINATION,RA_OF_ASC_NODE,ARG_OF_PERICENTER,MEAN_ANOMALY,EPHEMERIS_TYPE,CLASSIFICATION_TYPE,NORAD_CAT_ID,ELEMENT_SET_NO,REV_AT_EPOCH,BSTAR,MEAN_MOTION_DOT,MEAN_MOTION_DDOT
STARLINK-37975,2026-147D,2026-07-02T14:00:01.999872,15.96078944,.00009677,97.2838,219.2027,94.1452,250.2434,0,U,69707,999,172,-.56892162E-2,-.2294827E-1,.14816827E-2
STARLINK-37972,2026-147E,2026-07-02T14:00:01.999872,15.96263605,.0001001,97.2837,219.2033,90.7980,254.8590,0,U,69708,999,172,-.5575638E-2,-.2271713E-1,.14560513E-2
STARLINK-37963,2026-147F,2026-07-02T14:00:01.999872,15.96441373,.00010174,97.2837,219.2036,86.7242,260.1693,0,U,69709,999,172,-.54826626E-2,-.2255532E-1,.14390368E-2
STARLINK-37969,2026-147G,2026-07-02T14:00:01.999872,15.96625058,.00009275,97.2836,219.2041,87.5584,260.5917,0,U,69710,999,187,-.53986136E-2,-.2243241E-1,.14269708E-2
STARLINK-37956,2026-147H,2026-07-02T14:00:01.999872,15.96773933,.00009134,97.2836,219.2048,85.5580,263.5994,0,U,69711,999,172,-.52826172E-2,-.2213102E-1,.13926257E-2
STARLINK-38043,2026-147J,2026-07-02T14:00:01.999872,15.96945571,.00010304,97.2834,219.2052,94.6947,255.6783,0,U,69712,999,172,-.51855695E-2,-.2193014E-1,.13711143E-2
STARLINK-38020,2026-147K,2026-07-02T14:00:01.999872,15.97120118,.00010239,97.2834,219.2058,94.1775,257.4438,0,U,69713,999,172,-.51000863E-2,-.2177608E-1,.13553894E-2
STARLINK-38059,2026-147L,2026-07-02T14:00:01.999872,15.97279054,.00010285,97.2834,219.2061,95.4722,257.2599,0,U,69714,999,172,-.50206723E-2,-.2162519E-1,.13398683E-2
STARLINK-38061,2026-147M,2026-07-02T14:00:01.999872,15.97444234,.00010606,97.2834,219.2065,91.3145,262.5697,0,U,69715,999,181,-.49530325E-2,-.2152843E-1,.1330932E-2
STARLINK-38060,2026-147N,2026-07-02T14:00:01.999872,15.97595711,.00010536,97.2833,219.2071,93.0625,261.9198,0,U,69716,999,181,-.48657595E-2,-.2132726E-1,.13094731E-2
STARLINK-38040,2026-147P,2026-07-02T14:00:01.999872,15.97738268,.0001034,97.2833,219.2075,89.5488,266.4710,0,U,69717,999,181,-.47750891E-2,-.2109644E-1,.12845795E-2
STARLINK-37989,2026-147Q,2026-07-02T14:00:01.999872,15.97901162,.00011264,97.2833,219.2078,88.0604,269.1527,0,U,69718,999,181,-.4698507E-2,-.2094659E-1,.12695729E-2
STARLINK-38039,2026-147R,2026-07-02T14:00:01.999872,15.98044780,.0001131,97.2832,219.2084,84.8741,273.4271,0,U,69719,999,181,-.46122911E-2,-.2072777E-1,.12464178E-2
STARLINK-38003,2026-147S,2026-07-02T14:00:01.999872,15.98216494,.00010572,97.2830,219.2089,91.0663,268.5133,0,U,69720,999,181,-.45546821E-2,-.2066427E-1,.12416068E-2
STARLINK-38014,2026-147T,2026-07-02T14:00:01.999872,15.98349099,.00011021,97.2831,219.2094,87.5664,272.9903,0,U,69721,999,181,-.44804157E-2,-.2047894E-1,.12223214E-2
STARLINK-37915,2026-147U,2026-07-02T14:00:01.999872,15.98516624,.00010672,97.2832,219.2098,94.3492,267.4448,0,U,69722,999,181,-.44317747E-2,-.2044576E-1,.12209221E-2
STARLINK-38007,2026-147V,2026-07-02T14:00:01.999872,15.98646135,.00010009,97.2831,219.2102,92.0491,270.7755,0,U,69723,999,181,-.43544985E-2,-.202362E-1,.11989809E-2
STARLINK-38008,2026-147W,2026-07-02T14:00:01.999872,15.98774179,.00010437,97.2833,219.2108,89.8667,273.8993,0,U,69724,999,181,-.42835307E-2,-.2005065E-1,.11798904E-2
STARLINK-38021,2026-147X,2026-07-02T14:00:01.999872,15.98931098,.00010105,97.2831,219.2114,91.2278,274.0018,0,U,69725,999,181,-.42399097E-2,-.2002089E-1,.11787125E-2
STARLINK-38015,2026-147Y,2026-07-02T14:00:01.999872,15.99072045,.00010436,97.2831,219.2119,87.0518,279.2349,0,U,69726,999,181,-.41854262E-2,-.1992079E-1,.11694461E-2
STARLINK-38010,2026-147Z,2026-07-02T14:00:01.999872,15.99209141,.00010139,97.2831,219.2124,87.7052,279.6483,0,U,69727,999,181,-.41292277E-2,-.1980564E-1,.11584762E-2
SXM-11,2026-148A,2026-07-01T19:27:46.299456,3.36250226,.64808807,26.8832,144.5813,177.3988,189.3958,0,U,69728,999,11,0,-.235E-5,0
HAIYANG-2E,2026-149A,2026-07-02T09:35:40.068384,13.87666544,.00123163,99.3442,190.4869,261.6958,98.2802,0,U,69737,999,6,-.59573588E+0,-.669754E-2,0
